{
  "type": "FeatureCollection",
  "features": [
    {
      "type": "Feature",
      "properties": {
        "norad_id": 24946,
        "name": "IRIDIUM 33",
        "group": "iridium-33-debris",
        "lat": 58.31238046005695,
        "lon": 78.02695689135847,
        "alt_km": 773.7993422869558,
        "timestamp": "2025-12-03T08:58:46.387016+00:00",
        "meta_object_name": "IRIDIUM 33",
        "meta_object_id": "1997-051C",
        "meta_epoch": "2025-12-03T00:20:24.402912",
        "meta_mean_motion": 14.35025442,
        "meta_eccentricity": 0.0006094,
        "meta_inclination": 86.387,
        "meta_ra_of_asc_node": 72.3034,
        "meta_arg_of_pericenter": 238.0484,
        "meta_mean_anomaly": 122.012,
        "meta_ephemeris_type": 0,
        "meta_classification_type": "U",
        "meta_norad_cat_id": 24946,
        "meta_element_set_no": 999,
        "meta_rev_at_epoch": 47695,
        "meta_bstar": 0.00016993,
        "meta_mean_motion_dot": 5.03e-06,
        "meta_mean_motion_ddot": 0,
        "tle_line1": "1 24946U 97051C   25337.01417133  .00000503  00000+0  16993-3 0  9995",
        "tle_line2": "2 24946  86.3870  72.3034 0006094 238.0484 122.0120 14.35025442476955"
      },
      "geometry": {
        "type": "Point",
        "coordinates": [
          78.02695689135847,
          58.31238046005695
        ]
      }
    },
    {
      "type": "Feature",
      "properties": {
        "norad_id": 33773,
        "name": "IRIDIUM 33 DEB",
        "group": "iridium-33-debris",
        "lat": 80.23357320068372,
        "lon": -136.88759638159146,
        "alt_km": 738.614233555084,
        "timestamp": "2025-12-03T08:58:46.387064+00:00",
        "meta_object_name": "IRIDIUM 33 DEB",
        "meta_object_id": "1997-051L",
        "meta_epoch": "2025-12-02T19:12:34.458048",
        "meta_mean_motion": 14.43219569,
        "meta_eccentricity": 0.0011431,
        "meta_inclination": 86.4014,
        "meta_ra_of_asc_node": 64.8005,
        "meta_arg_of_pericenter": 177.1469,
        "meta_mean_anomaly": 182.9799,
        "meta_ephemeris_type": 0,
        "meta_classification_type": "U",
        "meta_norad_cat_id": 33773,
        "meta_element_set_no": 999,
        "meta_rev_at_epoch": 88204,
        "meta_bstar": 0.00045844,
        "meta_mean_motion_dot": 1.562e-05,
        "meta_mean_motion_ddot": 0,
        "tle_line1": "1 33773U 97051L   25336.80039882  .00001562  00000+0  45844-3 0  9993",
        "tle_line2": "2 33773  86.4014  64.8005 0011431 177.1469 182.9799 14.43219569882047"
      },
      "geometry": {
        "type": "Point",
        "coordinates": [
          -136.88759638159146,
          80.23357320068372
        ]
      }
    },
    {
      "type": "Feature",
      "properties": {
        "norad_id": 33775,
        "name": "IRIDIUM 33 DEB",
        "group": "iridium-33-debris",
        "lat": -62.85882139117534,
        "lon": -119.3241478350708,
        "alt_km": 756.1387832424944,
        "timestamp": "2025-12-03T08:58:46.387089+00:00",
        "meta_object_name": "IRIDIUM 33 DEB",
        "meta_object_id": "1997-051N",
        "meta_epoch": "2025-12-03T00:21:13.834080",
        "meta_mean_motion": 14.41432367,
        "meta_eccentricity": 0.0013173,
        "meta_inclination": 86.3643,
        "meta_ra_of_asc_node": 53.7045,
        "meta_arg_of_pericenter": 185.631,
        "meta_mean_anomaly": 353.4453,
        "meta_ephemeris_type": 0,
        "meta_classification_type": "U",
        "meta_norad_cat_id": 33775,
        "meta_element_set_no": 999,
        "meta_rev_at_epoch": 88000,
        "meta_bstar": 0.00046628,
        "meta_mean_motion_dot": 1.532e-05,
        "meta_mean_motion_ddot": 0,
        "tle_line1": "1 33775U 97051N   25337.01474345  .00001532  00000+0  46628-3 0  9994",
        "tle_line2": "2 33775  86.3643  53.7045 0013173 185.6310 353.4453 14.41432367880008"
      },
      "geometry": {
        "type": "Point",
        "coordinates": [
          -119.3241478350708,
          -62.85882139117534
        ]
      }
    },
    {
      "type": "Feature",
      "properties": {
        "norad_id": 33776,
        "name": "IRIDIUM 33 DEB",
        "group": "iridium-33-debris",
        "lat": -41.38640067427278,
        "lon": -92.11459589279069,
        "alt_km": 761.5941360093566,
        "timestamp": "2025-12-03T08:58:46.387104+00:00",
        "meta_object_name": "IRIDIUM 33 DEB",
        "meta_object_id": "1997-051P",
        "meta_epoch": "2025-12-02T19:07:05.354400",
        "meta_mean_motion": 14.38202771,
        "meta_eccentricity": 0.0013307,
        "meta_inclination": 86.4037,
        "meta_ra_of_asc_node": 84.951,
        "meta_arg_of_pericenter": 224.8807,
        "meta_mean_anomaly": 248.0842,
        "meta_ephemeris_type": 0,
        "meta_classification_type": "U",
        "meta_norad_cat_id": 33776,
        "meta_element_set_no": 999,
        "meta_rev_at_epoch": 87939,
        "meta_bstar": 0.00041731,
        "meta_mean_motion_dot": 1.287e-05,
        "meta_mean_motion_ddot": 0,
        "tle_line1": "1 33776U 97051P   25336.79658975  .00001287  00000+0  41731-3 0  9999",
        "tle_line2": "2 33776  86.4037  84.9510 0013307 224.8807 248.0842 14.38202771879397"
      },
      "geometry": {
        "type": "Point",
        "coordinates": [
          -92.11459589279069,
          -41.38640067427278
        ]
      }
    },
    {
      "type": "Feature",
      "properties": {
        "norad_id": 33777,
        "name": "IRIDIUM 33 DEB",
        "group": "iridium-33-debris",
        "lat": 34.48022594183778,
        "lon": -143.21479927710146,
        "alt_km": 708.7185959328363,
        "timestamp": "2025-12-03T08:58:46.387118+00:00",
        "meta_object_name": "IRIDIUM 33 DEB",
        "meta_object_id": "1997-051Q",
        "meta_epoch": "2025-12-03T03:21:48.856320",
        "meta_mean_motion": 14.55490423,
        "meta_eccentricity": 0.0005159,
        "meta_inclination": 86.3802,
        "meta_ra_of_asc_node": 39.3786,
        "meta_arg_of_pericenter": 294.2135,
        "meta_mean_anomaly": 65.8533,
        "meta_ephemeris_type": 0,
        "meta_classification_type": "U",
        "meta_norad_cat_id": 33777,
        "meta_element_set_no": 999,
        "meta_rev_at_epoch": 88394,
        "meta_bstar": 0.0012888,
        "meta_mean_motion_dot": 5.628e-05,
        "meta_mean_motion_ddot": 0,
        "tle_line1": "1 33777U 97051Q   25337.14014880  .00005628  00000+0  12888-2 0  9994",
        "tle_line2": "2 33777  86.3802  39.3786 0005159 294.2135  65.8533 14.55490423883947"
      },
      "geometry": {
        "type": "Point",
        "coordinates": [
          -143.21479927710146,
          34.48022594183778
        ]
      }
    },
    {
      "type": "Feature",
      "properties": {
        "norad_id": 33850,
        "name": "IRIDIUM 33 DEB",
        "group": "iridium-33-debris",
        "lat": -21.042319819252473,
        "lon": -144.3837202694469,
        "alt_km": 749.0402038976408,
        "timestamp": "2025-12-03T08:58:46.387130+00:00",
        "meta_object_name": "IRIDIUM 33 DEB",
        "meta_object_id": "1997-051T",
        "meta_epoch": "2025-12-02T22:51:37.943136",
        "meta_mean_motion": 14.42110788,
        "meta_eccentricity": 0.0011173,
        "meta_inclination": 86.3425,
        "meta_ra_of_asc_node": 34.3874,
        "meta_arg_of_pericenter": 192.0095,
        "meta_mean_anomaly": 341.4197,
        "meta_ephemeris_type": 0,
        "meta_classification_type": "U",
        "meta_norad_cat_id": 33850,
        "meta_element_set_no": 999,
        "meta_rev_at_epoch": 88011,
        "meta_bstar": 0.0005659,
        "meta_mean_motion_dot": 1.88e-05,
        "meta_mean_motion_ddot": 0,
        "tle_line1": "1 33850U 97051T   25336.95252249  .00001880  00000+0  56590-3 0  9992",
        "tle_line2": "2 33850  86.3425  34.3874 0011173 192.0095 341.4197 14.42110788880110"
      },
      "geometry": {
        "type": "Point",
        "coordinates": [
          -144.3837202694469,
          -21.042319819252473
        ]
      }
    },
    {
      "type": "Feature",
      "properties": {
        "norad_id": 33853,
        "name": "IRIDIUM 33 DEB",
        "group": "iridium-33-debris",
        "lat": -54.161384520161455,
        "lon": 179.47786598823177,
        "alt_km": 774.0084019663855,
        "timestamp": "2025-12-03T08:58:46.387144+00:00",
        "meta_object_name": "IRIDIUM 33 DEB",
        "meta_object_id": "1997-051W",
        "meta_epoch": "2025-12-03T01:14:37.863168",
        "meta_mean_motion": 13.9895633,
        "meta_eccentricity": 0.0206831,
        "meta_inclination": 86.0005,
        "meta_ra_of_asc_node": 354.0603,
        "meta_arg_of_pericenter": 265.7675,
        "meta_mean_anomaly": 147.401,
        "meta_ephemeris_type": 0,
        "meta_classification_type": "U",
        "meta_norad_cat_id": 33853,
        "meta_element_set_no": 999,
        "meta_rev_at_epoch": 85210,
        "meta_bstar": 0.0028183,
        "meta_mean_motion_dot": 4.902e-05,
        "meta_mean_motion_ddot": 0,
        "tle_line1": "1 33853U 97051W   25337.05182712  .00004902  00000+0  28183-2 0  9998",
        "tle_line2": "2 33853  86.0005 354.0603 0206831 265.7675 147.4010 13.98956330852102"
      },
      "geometry": {
        "type": "Point",
        "coordinates": [
          179.47786598823177,
          -54.161384520161455
        ]
      }
    }
  ]
}